#cP2016  7 30  0  0  0.00000000      96 ORBIT IGb08 HLM  IGS
## 1907 518400.00000000   900.00000000 57599 0.0000000000000
+   32   G01G02G03G04G05G06G07G08G09G10G11G12G13G14G15G16G17
+        G18G19G20G21G22G23G24G25G26G27G28G29G30G31G32  0  0
+          0  0  0  0  0  0  0  0  0  0  0  0  0  0  0  0  0
+          0  0  0  0  0  0  0  0  0  0  0  0  0  0  0  0  0
+          0  0  0  0  0  0  0  0  0  0  0  0  0  0  0  0  0
++         2  2  1  0  2  2  2  1  2  2  2  2  2  2  2  2  2
++         2  2  2  2  2  2  2  2  2  2  2  2  2  2  2  0  0
++         0  0  0  0  0  0  0  0  0  0  0  0  0  0  0  0  0
++         0  0  0  0  0  0  0  0  0  0  0  0  0  0  0  0  0
++         0  0  0  0  0  0  0  0  0  0  0  0  0  0  0  0  0
%c G  cc GPS ccc cccc cccc cccc cccc ccccc ccccc ccccc ccccc
%c cc cc ccc ccc cccc cccc cccc cccc ccccc ccccc ccccc ccccc
%f  1.2500000  1.025000000  0.00000000000  0.000000000000000
%f  0.0000000  0.000000000  0.00000000000  0.000000000000000
%i    0    0    0    0      0      0      0      0         0
%i    0    0    0    0      0      0      0      0         0
/* FINAL ORBIT COMBINATION FROM WEIGHTED AVERAGE OF:        
/* cod emr esa gfz grg jpl mit ngs sio                      
/* REFERENCED TO IGS TIME (IGST) AND TO WEIGHTED MEAN POLE: 
/* PCV:IGS08_1904 OL/AL:FES2004  NONE     Y  ORB:CMB CLK:CMB
*  2016  7 30 18 45  0.00000000
PG01  17545.998167   5530.027949  19154.194902     28.675379  6  4  7  96       
PG02 -14410.114456 -22382.015675  -2367.587018    570.796256  8  8  7  75       
PG03  18982.790290  -6873.064820  17260.970490    -77.045863  6  4  4 101       
PG04  -4962.650790  22559.554439 -13091.300735 999999.999999
PG05 -10056.712184 -12584.921898 -21155.705751   -101.659014  5  2  2 104       
PG06  -4728.921791 -24254.184225   9743.489674    225.814293  7  4  3 115       
PG07  10739.349327 -11508.091101 -21179.659574    438.361695  6  4  3 127       
PG08  25047.873459   5860.419143  -6655.374162    -44.752533  2  5  1 108       
PG09  22306.600152  -7614.655194 -12274.096216    177.406886  5  3  6 111       
PG10  -9303.485848  23735.918239   7334.306467    -74.981437  4  6  4  89       
PG11  22361.505199   7480.744050  11676.004459   -657.642165  4  5  4 102       
PG12 -18018.932601   3500.846184  18979.550968    386.465694  4  5  5 110       
PG13 -19374.518062 -12515.835181 -13217.648737    -34.500649  7  9  5 124       
PG14   3805.466151  15573.354971  21472.614890    -27.317267  3  7  6 103       
PG15 -25988.581153  -3757.581359  -5220.617205   -321.487564  7  5  4  99       
PG16   8666.894958  12327.186354 -21927.695314     -1.719148  5  9  9 126       
PG17   5466.065922 -14356.985604  21980.469175   -203.683343  3  8  2 116       
PG18 -15823.698168  20740.919304  -3678.995045    542.072462  7 10  5  89       
PG19  -4091.743940 -15139.885184  21123.323677   -524.605964  4  8  6 127       
PG20 -18395.324723   4328.612349 -18828.915511    427.241900  4  5  2 111       
PG21  -8526.497389  14604.864147 -19676.327532   -529.494806  4  6  5 131       
PG22  17137.966407   1653.666898  20489.248793    283.986362  6  5  4 112       
PG23  26458.478138  -1358.231246  -3840.152027   -184.230996  2  4  6 115       
PG24 -18504.078685  -8884.921993  16904.261962    -20.932177  2  4  5 121       
PG25 -18657.132204  15443.636695  10552.483758   -218.052015  6  6  4  90       
PG26    988.249937  20396.167252 -16960.942111   -436.460245  6  7  5 101       
PG27  17278.327730  12058.272566 -16315.522729    120.813289  4  6  3 118       
PG28  11999.309509 -22853.305474   6784.689351    540.960525  4  7  5 103       
PG29 -23879.542835   4538.458478 -10670.219954    654.604832  4  6  6 100       
PG30   4737.850588 -19822.682762 -16972.007537    142.751011  4  5  6 121       
PG31   6638.578392  24731.190784   6399.770656    256.109486  5 10  6  91       
PG32  -4290.685575  14928.411402  21557.245985    -63.832998  4  6  7 112       
*  2016  7 30 19  0  0.00000000
PG01  18441.131989   7447.357440  17631.106813     28.676588  6  4  7  85       
PG02 -14256.077990 -22658.432320    429.697861    570.792567  8  9  6  74       
PG03  18030.399051  -5034.443569  18844.346867    -77.048436  6  5  4 107       
PG04  -5828.173609  23587.704372 -10632.217574 999999.999999
PG05  -8773.880101 -14583.061290 -20410.744582   -101.656712  5  3  2 104       
PG06  -3941.075400 -23255.211984  12217.907797    225.818967  6  5  4 105       
PG07  11929.140779  -9325.077041 -21645.707618    438.358969  6  4  3 119       
PG08  24126.091867   6073.196990  -9315.132146    -44.753751  3  5  1 114       
PG09  23566.119723  -7360.243926  -9831.043624    177.413387  5  3  6 104       
PG10  -9873.804238  24187.281144   4586.738609    -74.987433  3  5  4 100       
PG11  23105.351230   8601.263435   9335.642994   -657.643901  4  5  4 106       
PG12 -16807.952496   1573.621211  20310.627918    386.466016  5  5  5 118       
PG13 -17746.224286 -12465.325915 -15399.350678    -34.502688  6  9  6  78       
PG14   1392.775352  15359.811078  21905.132393    -27.319319  2  6  6 114       
PG15 -25270.582829  -4082.690245  -7860.129946   -321.489196  8  6  4 100       
PG16   7202.380969  14287.062451 -21220.651654     -1.717168  6  9  9 127       
PG17   7864.412895 -14140.837182  21359.402313   -203.683115  4  7  1 117       
PG18 -15831.899256  19996.258436  -6394.533399    542.076130  7 10  5  92       
PG19  -1600.114917 -14898.802609  21648.786099   -524.605841  4  8  6 119       
PG20 -17542.046970   2294.084996 -19972.041878    427.243772  4  5  2 102       
PG21  -9863.310757  12533.195230 -20456.683639   -529.495433  4  5  5 132       
PG22  16050.449623   3728.778788  21085.531497    283.977940  6  5  4 106       
PG23  26752.442778  -1087.503146  -1059.537395   -184.232354  2  4  6 112       
PG24 -19262.053901 -10562.402571  15009.907310    -20.932431  3  4  6 118       
PG25 -18103.446238  14177.334314  12999.290087   -218.058369  6  6  3 106       
PG26   -102.986492  21878.150660 -15028.743188   -436.468587  6  7  5 104       
PG27  15322.972424  12148.826152 -18093.477202    120.817303  4  6  3 119       
PG28  12448.619855 -23196.411257   3956.150135    540.962558  5  7  5 106       
PG29 -24931.155644   4264.905067  -8054.314801    654.604079  4  6  6  90       
PG30   5744.406256 -18040.180343 -18583.591596    142.752916  4  4  6 129       
PG31   6030.046612  24049.406213   9108.018201    256.107924  6 10  5 100       
PG32  -6721.720968  14832.798381  20992.786606    -63.843440  4  6  7 108       
*  2016  7 30 19 15  0.00000000
PG01  19336.497610   9151.013537  15805.213516     28.677746  7  4  7  88       
PG02 -13943.194551 -22681.805248   3219.805489    570.788677  8  9  7 107       
PG03  17099.095873  -3006.957910  20103.524538    -77.051004  6  5  4 100       
PG04  -6496.265632  24409.889983  -7989.373367 999999.999999
PG05  -7638.636502 -16552.036093 -19315.171393   -101.654220  5  5  2 101       
PG06  -2958.883764 -22072.049684  14482.131509    225.823648  6  5  4 113       
PG07  13245.604094  -7183.579817 -21733.191349    438.356821  6  4  4 124       
PG08  22924.598245   6347.059942 -11814.660127    -44.754715  3  4    117       
PG09  24551.560220  -7158.409645  -7219.058659    177.419890  5  3  5 101       
PG10 -10272.908805  24387.925663   1759.910440    -74.993424  3  5  4  90       
PG11  23675.541353   9520.904056   6830.933999   -657.644849  5  5  3 114       
PG12 -15639.736672   -530.787814  21286.254261    386.466999  5  5  5 118       
PG13 -15887.685216 -12483.748901 -17317.174306    -34.504783  6  9  6  81       
PG14  -1056.968492  15274.044073  21970.322940    -27.321037  3  5  6 112       
PG15 -24283.087461  -4468.803393 -10367.624298   -321.490692  8  6  4 100       
PG16   5902.476699  16244.385406 -20149.147971     -1.715441  6 10  9 122       
PG17  10184.246679 -14058.374943  20380.411886   -203.683167  5  7    122       
PG18 -15742.938180  18977.223419  -8996.604424    542.079624  7  9  5  78       
PG19    936.026538 -14788.779050  21791.872234   -524.605431  4  8  5 123       
PG20 -16742.572486    121.807640 -20776.129907    427.246101  4  6  2 108       
PG21 -11332.046742  10468.073508 -20859.232428   -529.495750  4  5  6 126       
PG22  15040.369704   5894.979179  21327.055862    283.969692  6  5  5 109       
PG23  26747.724608   -822.193426   1738.857634   -184.233806  3  4  5 105       
PG24 -19977.943573 -12007.418717  12858.568093    -20.932987  4  4  5 114       
PG25 -17494.302636  12647.247660  15218.658990   -218.064706  5  6  2 104       
PG26  -1008.094479  23207.761201 -12837.409303   -436.476963  6  7  5 101       
PG27  13191.304946  12352.846422 -19562.901431    120.821343  4  6  4 117       
PG28  12709.749851 -23289.014763   1060.047915    540.965080  5  6  5 100       
PG29 -25691.420284   4055.159705  -5299.543213    654.603413  4  6  5  97       
PG30   6916.654215 -16166.576943 -19874.272832    142.754859  5  5  6 123       
PG31   5237.344337  23141.847569  11656.912725    256.105941  6 10  5  90       
PG32  -9070.486705  14859.845191  20067.449000    -63.853924  4  6  6 102       
EOF
